QIANFAN-41              
1 62242U 24232F   25220.55568715  .00000061  00000+0  75675-4 0  9992
2 62242  88.9928  53.9495 0013520 188.0990 171.9945 13.50960020 82218
QIANFAN-42              
1 62243U 24232G   25220.53336810  .00000147  00000+0  57001-4 0  9998
2 62243  88.9926  51.7894 0016655 131.3608 228.9020 14.24335327 83402
QIANFAN-43              
1 62244U 24232H   25220.55155576  .00000054  00000+0  64833-4 0  9997
2 62244  88.9932  54.0097 0014837 194.3468 165.7264 13.50952801 50822
QIANFAN-44              
1 62245U 24232J   25220.61331680  .00000051  00000+0  60243-4 0  9995
2 62245  88.9931  53.8160 0013174 190.1340 169.9548 13.50962798 82301
QIANFAN-45              
1 62246U 24232K   25220.58038634  .00000052  00000+0  62596-4 0  9999
2 62246  88.9934  53.9615 0013830 190.3066 169.7804 13.50958580 82225
QIANFAN-46              
1 62247U 24232L   25220.60506646  .00000048  00000+0  56284-4 0  9998
2 62247  88.9930  54.0332 0013718 195.9479 164.1242 13.50960575 82181
QIANFAN-47              
1 62248U 24232M   25220.60910888  .00000057  00000+0  69685-4 0  9995
2 62248  88.9926  53.9708 0014165 195.2463 164.8263 13.50960326 82213
QIANFAN-48              
1 62249U 24232N   25220.57216659  .00000066  00000+0  84377-4 0  9992
2 62249  88.9930  53.9714 0016340 199.1146 160.9394 13.50963159 82213
